IRIDIUM 155             
1 43573U 18061E   25157.40762163  .00000081  00000+0  21877-4 0  9994
2 43573  86.3992 213.6729 0002618  94.0493 266.1002 14.34216164359496
IRIDIUM 154             
1 43574U 18061F   25157.59789968  .00000172  00000+0  54288-4 0  9990
2 43574  86.3997 213.7082 0002323  93.1975 266.9486 14.34217677359576
IRIDIUM 163             
1 43575U 18061G   25157.43933523 -.00000037  00000+0 -20217-4 0  9999
2 43575  86.3998 213.7015 0002279  98.2151 261.9303 14.34217172359524
IRIDIUM 156             
1 43576U 18061H   25157.41396586  .00000037  00000+0  62639-5 0  9993
2 43576  86.3994 213.7190 0002675  90.3369 269.8133 14.34216998359511
IRIDIUM 164             
1 43577U 18061J   25157.39493699  .00000221  00000+0  71979-4 0  9995
2 43577  86.3996 213.7613 0002234  87.2186 272.9265 14.34217402359553
IRIDIUM 159             
1 43578U 18061K   25157.57252914 -.00000038  00000+0 -20748-4 0  9995
2 43578  86.3997 213.6316 0001985  95.1159 265.0263 14.34216920359548
IRIDIUM 180             
1 43922U 19002A   25157.36271941  .00000002  00000+0 -65109-5 0  9993
2 43922  86.3982 150.7021 0002209  91.0719 269.0730 14.34217548335124
IRIDIUM 176             
1 43923U 19002B   25157.43350656  .00000368  00000+0  54511-4 0  9991
2 43923  86.6101 150.6669 0003065  98.8076 261.3488 14.72249462343968
IRIDIUM 168             
1 43924U 19002C   25157.42614437  .00000004  00000+0 -57891-5 0  9994
2 43924  86.3983 150.7422 0002232  88.4967 271.6484 14.34217698335113
IRIDIUM 173             
1 43925U 19002D   25157.41346005  .00000012  00000+0 -27323-5 0  9993
2 43925  86.3979 150.6519 0002304  92.7248 267.4211 14.34217547335096
IRIDIUM 169             
1 43926U 19002E   25157.51197116  .00000315  00000+0  96437-4 0  9998
2 43926  86.4252 182.1890 0003769  98.4927 261.6699 14.38608582336215
IRIDIUM 172             
1 43927U 19002F   25157.33734668 -.00000015  00000+0 -12260-4 0  9999
2 43927  86.3980 150.6904 0001995  94.7677 265.3746 14.34217181335095
IRIDIUM 175             
1 43928U 19002G   25157.56441622  .00000887  00000+0  13676-3 0  9996
2 43928  86.1495 103.7321 0003244  74.2943 285.8631 14.72247804343978
IRIDIUM 171             
1 43929U 19002H   25157.38808627  .00000141  00000+0  43228-4 0  9999
2 43929  86.3984 150.9337 0002403  80.4508 279.6959 14.34219240335096
IRIDIUM 170             
1 43930U 19002J   25157.43968911  .00000443  00000+0  66280-4 0  9998
2 43930  86.6101 150.6688 0002935  89.8925 270.2628 14.72251449343979
IRIDIUM 167             
1 43931U 19002K   25157.38174785  .00000030  00000+0  37752-5 0  9996
2 43931  86.3975 150.6910 0002685  81.7390 278.4110 14.34217665335093
IRIDIUM 181             
1 56726U 23068S   25157.41047952  .00000251  00000+0  68628-4 0  9998
2 56726  86.4533 213.7311 0002178  79.6175 280.5271 14.43306247108231
IRIDIUM 177             
1 56727U 23068T   25157.39003129  .00000695  00000+0  88004-4 0  9996
2 56727  86.1970 147.2525 0002621  82.7321 277.4198 14.80227746110775
IRIDIUM 174             
1 56728U 23068U   25157.42732423  .00000091  00000+0  10467-4 0  9995
2 56728  86.6110 150.7830 0002361 102.5331 257.6150 14.72244823110738
IRIDIUM 178             
1 56729U 23068V   25157.10872004  .00001133  00000+0  14569-3 0  9995
2 56729  86.6572 182.4551 0002388  94.6704 265.4790 14.80243048110731
IRIDIUM 179             
1 56730U 23068W   25157.37376566  .00001197  00000+0  15402-3 0  9995
2 56730  86.6814 190.1818 0002636  93.9595 266.1928 14.80245204110771
